{
  "norad_id": 68580,
  "name": "KUIPER-00231",
  "history": [
    {
      "epoch": "2026-04-09T12:01:13.853856Z",
      "apogee_km": 454.08290060391937,
      "perigee_km": 450.0230356868524,
      "latitude_deg": 3.0069427404167833e-05,
      "longitude_deg": 131.01515060051233,
      "height_km": 453.38916838802163,
      "semi_major_axis_km": 6830.189968145385,
      "eccentricity": 0.0002972,
      "inclination_deg": 51.8735,
      "raan_deg": 149.071,
      "arg_perigee_deg": 106.514,
      "mean_anomaly_deg": 253.6174,
      "mean_motion_rev_day": 15.37990269
    }
  ]
}